{"type": "FeatureCollection", "features": [ {"type": "Feature", "properties": {"norad_id": 65304, "name": "DRAGON CRS-33", "group": "stations", "lat": 25.33763215198259, "lon": 155.24620176123202, "alt_km": 416.65141190536997, "timestamp": "2025-12-14T14:39:28.155329+00:00", "meta": {"OBJECT_NAME": "DRAGON CRS-33", "OBJECT_ID": "2025-186A", "EPOCH": "2025-12-13T21:29:24.134208", "MEAN_MOTION": 15.49578, "ECCENTRICITY": 0.00032568, "INCLINATION": 51.6304, "RA_OF_ASC_NODE": 136.7564, "ARG_OF_PERICENTER": 246.2023, "MEAN_ANOMALY": 113.8624, "EPHEMERIS_TYPE": 0, "CLASSIFICATION_TYPE": "U", "NORAD_CAT_ID": 65304, "ELEMENT_SET_NO": 999, "REV_AT_EPOCH": 11, "BSTAR": 0.00022109287, "MEAN_MOTION_DOT": 0.00011998, "MEAN_MOTION_DDOT": 0}, "tle": {"line1": "1 65304U 25186A   25347.89541822  .00011998  00000+0  22109-3 0  9994", "line2": "2 65304  51.6304 136.7564 0003256 246.2023 113.8624 15.49578000   112"}}, "geometry": {"type": "Point", "coordinates": [155.24620176123202, 25.33763215198259]}}, {"type": "Feature", "properties": {"norad_id": 65586, "name": "PROGRESS-MS 32", "group": "stations", "lat": 25.337632715559284, "lon": 155.2462023502424, "alt_km": 416.65141183171545, "timestamp": "2025-12-14T14:39:28.155341+00:00", "meta": {"OBJECT_NAME": "PROGRESS-MS 32", "OBJECT_ID": "2025-204A", "EPOCH": "2025-12-13T21:29:24.134208", "MEAN_MOTION": 15.49578, "ECCENTRICITY": 0.00032568, "INCLINATION": 51.6304, "RA_OF_ASC_NODE": 136.7564, "ARG_OF_PERICENTER": 246.2023, "MEAN_ANOMALY": 113.8624, "EPHEMERIS_TYPE": 0, "CLASSIFICATION_TYPE": "U", "NORAD_CAT_ID": 65586, "ELEMENT_SET_NO": 999, "REV_AT_EPOCH": 27, "BSTAR": 0.00022109287, "MEAN_MOTION_DOT": 0.00011998, "MEAN_MOTION_DDOT": 0}, "tle": {"line1": "1 65586U 25204A   25347.89541822  .00011998  00000+0  22109-3 0  9997", "line2": "2 65586  51.6304 136.7564 0003256 246.2023 113.8624 15.49578000   271"}}, "geometry": {"type": "Point", "coordinates": [155.2462023502424, 25.337632715559284]}}, {"type": "Feature", "properties": {"norad_id": 65616, "name": "CYGNUS NG-23", "group": "stations", "lat": 25.337633185206435, "lon": 155.24620284108425, "alt_km": 416.6514117703409, "timestamp": "2025-12-14T14:39:28.155351+00:00", "meta": {"OBJECT_NAME": "CYGNUS NG-23", "OBJECT_ID": "2025-208A", "EPOCH": "2025-12-13T21:29:24.134208", "MEAN_MOTION": 15.49578, "ECCENTRICITY": 0.00032568, "INCLINATION": 51.6304, "RA_OF_ASC_NODE": 136.7564, "ARG_OF_PERICENTER": 246.2023, "MEAN_ANOMALY": 113.8624, "EPHEMERIS_TYPE": 0, "CLASSIFICATION_TYPE": "U", "NORAD_CAT_ID": 65616, "ELEMENT_SET_NO": 999, "REV_AT_EPOCH": 22, "BSTAR": 0.00022109287, "MEAN_MOTION_DOT": 0.00011998, "MEAN_MOTION_DDOT": 0}, "tle": {"line1": "1 65616U 25208A   25347.89541822  .00011998  00000+0  22109-3 0  9995", "line2": "2 65616  51.6304 136.7564 0003256 246.2023 113.8624 15.49578000   220"}}, "geometry": {"type": "Point", "coordinates": [155.24620284108425, 25.337633185206435]}}, {"type": "Feature", "properties": {"norad_id": 65729, "name": "DRAGONFLY", "group": "stations", "lat": 12.05459875712576, "lon": -63.567110950522746, "alt_km": 352.89601802896595, "timestamp": "2025-12-14T14:39:28.155361+00:00", "meta": {"OBJECT_NAME": "DRAGONFLY", "OBJECT_ID": "1998-067XH", "EPOCH": "2025-12-13T16:36:27.743328", "MEAN_MOTION": 15.72310549, "ECCENTRICITY": 0.00068171, "INCLINATION": 51.6241, "RA_OF_ASC_NODE": 130.8872, "ARG_OF_PERICENTER": 284.278, "MEAN_ANOMALY": 75.7461, "EPHEMERIS_TYPE": 0, "CLASSIFICATION_TYPE": "U", "NORAD_CAT_ID": 65729, "ELEMENT_SET_NO": 999, "REV_AT_EPOCH": 1331, "BSTAR": 0.0013020604, "MEAN_MOTION_DOT": 0.00179632, "MEAN_MOTION_DDOT": 0}, "tle": {"line1": "1 65729U 98067XH  25347.69198777  .00179632  00000+0  13021-2 0  9990", "line2": "2 65729  51.6241 130.8872 0006817 284.2780  75.7461 15.72310549 13317"}}, "geometry": {"type": "Point", "coordinates": [-63.567110950522746, 12.05459875712576]}}, {"type": "Feature", "properties": {"norad_id": 65731, "name": "1998-067XK", "group": "stations", "lat": 26.052206979814983, "lon": -75.055831188134, "alt_km": 367.9047896883085, "timestamp": "2025-12-14T14:39:28.155373+00:00", "meta": {"OBJECT_NAME": "1998-067XK", "OBJECT_ID": "1998-067XK", "EPOCH": "2025-12-13T16:35:48.207552", "MEAN_MOTION": 15.65971562, "ECCENTRICITY": 0.0005022, "INCLINATION": 51.6277, "RA_OF_ASC_NODE": 132.4028, "ARG_OF_PERICENTER": 252.6654, "MEAN_ANOMALY": 107.3793, "EPHEMERIS_TYPE": 0, "CLASSIFICATION_TYPE": "U", "NORAD_CAT_ID": 65731, "ELEMENT_SET_NO": 999, "REV_AT_EPOCH": 1329, "BSTAR": 0.0009945398, "MEAN_MOTION_DOT": 0.00104411, "MEAN_MOTION_DDOT": 0}, "tle": {"line1": "1 65731U 98067XK  25347.69153018  .00104411  00000+0  99454-3 0  9990", "line2": "2 65731  51.6277 132.4028 0005022 252.6654 107.3793 15.65971562 13293"}}, "geometry": {"type": "Point", "coordinates": [-75.055831188134, 26.052206979814983]}}, {"type": "Feature", "properties": {"norad_id": 65732, "name": "RSP-03", "group": "stations", "lat": 31.47990125848551, "lon": -82.03781133663797, "alt_km": 359.3255180795122, "timestamp": "2025-12-14T14:39:28.155385+00:00", "meta": {"OBJECT_NAME": "RSP-03", "OBJECT_ID": "1998-067XL", "EPOCH": "2025-12-13T16:40:16.814784", "MEAN_MOTION": 15.68925685, "ECCENTRICITY": 0.00057642, "INCLINATION": 51.6251, "RA_OF_ASC_NODE": 131.6633, "ARG_OF_PERICENTER": 257.9098, "MEAN_ANOMALY": 102.1253, "EPHEMERIS_TYPE": 0, "CLASSIFICATION_TYPE": "U", "NORAD_CAT_ID": 65732, "ELEMENT_SET_NO": 999, "REV_AT_EPOCH": 1331, "BSTAR": 0.0011602018, "MEAN_MOTION_DOT": 0.00138092, "MEAN_MOTION_DDOT": 0}, "tle": {"line1": "1 65732U 98067XL  25347.69463906  .00138092  00000+0  11602-2 0  9991", "line2": "2 65732  51.6251 131.6633 0005764 257.9098 102.1253 15.68925685 13317"}}, "geometry": {"type": "Point", "coordinates": [-82.03781133663797, 31.47990125848551]}}, {"type": "Feature", "properties": {"norad_id": 65733, "name": "GHS-01", "group": "stations", "lat": 50.73385062485181, "lon": -130.1947196980417, "alt_km": 340.2904147964218, "timestamp": "2025-12-14T14:39:28.155396+00:00", "meta": {"OBJECT_NAME": "GHS-01", "OBJECT_ID": "1998-067XM", "EPOCH": "2025-12-13T15:24:20.714688", "MEAN_MOTION": 15.75321114, "ECCENTRICITY": 0.00073966, "INCLINATION": 51.6271, "RA_OF_ASC_NODE": 130.5592, "ARG_OF_PERICENTER": 286.1274, "MEAN_ANOMALY": 73.8911, "EPHEMERIS_TYPE": 0, "CLASSIFICATION_TYPE": "U", "NORAD_CAT_ID": 65733, "ELEMENT_SET_NO": 999, "REV_AT_EPOCH": 1332, "BSTAR": 0.0014639187, "MEAN_MOTION_DOT": 0.0023151, "MEAN_MOTION_DDOT": 0}, "tle": {"line1": "1 65733U 98067XM  25347.64190642  .00231510  00000+0  14639-2 0  9993", "line2": "2 65733  51.6271 130.5592 0007396 286.1274  73.8911 15.75321114 13326"}}, "geometry": {"type": "Point", "coordinates": [-130.1947196980417, 50.73385062485181]}}, {"type": "Feature", "properties": {"norad_id": 65941, "name": "YOTSUBA-KULOVER", "group": "stations", "lat": -33.1297773829601, "lon": -18.293281881893066, "alt_km": 391.3293662766491, "timestamp": "2025-12-14T14:39:28.155406+00:00", "meta": {"OBJECT_NAME": "YOTSUBA-KULOVER", "OBJECT_ID": "1998-067XN", "EPOCH": "2025-12-12T17:06:14.736384", "MEAN_MOTION": 15.59447843, "ECCENTRICITY": 0.00014047, "INCLINATION": 51.6283, "RA_OF_ASC_NODE": 140.1142, "ARG_OF_PERICENTER": 246.8378, "MEAN_ANOMALY": 113.2466, "EPHEMERIS_TYPE": 0, "CLASSIFICATION_TYPE": "U", "NORAD_CAT_ID": 65941, "ELEMENT_SET_NO": 999, "REV_AT_EPOCH": 985, "BSTAR": 0.0010939393, "MEAN_MOTION_DOT": 0.0008876, "MEAN_MOTION_DDOT": 0}, "tle": {"line1": "1 65941U 98067XN  25346.71267056  .00088760  00000+0  10939-2 0  9991", "line2": "2 65941  51.6283 140.1142 0001404 246.8378 113.2466 15.59447843  9857"}}, "geometry": {"type": "Point", "coordinates": [-18.293281881893066, -33.1297773829601]}}, {"type": "Feature", "properties": {"norad_id": 65942, "name": "BOTAN", "group": "stations", "lat": -27.748659192875547, "lon": -25.526784130954915, "alt_km": 379.79977485564905, "timestamp": "2025-12-14T14:39:28.155417+00:00", "meta": {"OBJECT_NAME": "BOTAN", "OBJECT_ID": "1998-067XP", "EPOCH": "2025-12-13T19:19:30.936288", "MEAN_MOTION": 15.63168137, "ECCENTRICITY": 0.00029855, "INCLINATION": 51.6273, "RA_OF_ASC_NODE": 133.9097, "ARG_OF_PERICENTER": 245.5023, "MEAN_ANOMALY": 114.566, "EPHEMERIS_TYPE": 0, "CLASSIFICATION_TYPE": "U", "NORAD_CAT_ID": 65942, "ELEMENT_SET_NO": 999, "REV_AT_EPOCH": 1003, "BSTAR": 0.0012359991, "MEAN_MOTION_DOT": 0.00116317, "MEAN_MOTION_DDOT": 0}, "tle": {"line1": "1 65942U 98067XP  25347.80521917  .00116317  00000+0  12360-2 0  9992", "line2": "2 65942  51.6273 133.9097 0002985 245.5023 114.5660 15.63168137 10037"}}, "geometry": {"type": "Point", "coordinates": [-25.526784130954915, -27.748659192875547]}}, {"type": "Feature", "properties": {"norad_id": 65943, "name": "E-KAGAKU-1", "group": "stations", "lat": -32.85633629001333, "lon": -18.646292191214247, "alt_km": 391.02632896782325, "timestamp": "2025-12-14T14:39:28.155427+00:00", "meta": {"OBJECT_NAME": "E-KAGAKU-1", "OBJECT_ID": "1998-067XQ", "EPOCH": "2025-12-13T16:10:25.766976", "MEAN_MOTION": 15.59600277, "ECCENTRICITY": 0.0001883, "INCLINATION": 51.6291, "RA_OF_ASC_NODE": 135.2869, "ARG_OF_PERICENTER": 210.5697, "MEAN_ANOMALY": 149.5187, "EPHEMERIS_TYPE": 0, "CLASSIFICATION_TYPE": "U", "NORAD_CAT_ID": 65943, "ELEMENT_SET_NO": 999, "REV_AT_EPOCH": 1000, "BSTAR": 0.00085555158, "MEAN_MOTION_DOT": 0.00069544, "MEAN_MOTION_DDOT": 0}, "tle": {"line1": "1 65943U 98067XQ  25347.67390934  .00069544  00000+0  85555-3 0  9997", "line2": "2 65943  51.6291 135.2869 0001883 210.5697 149.5187 15.59600277 10005"}}, "geometry": {"type": "Point", "coordinates": [-18.646292191214247, -32.85633629001333]}}]}